      2.10          N: GNSS NAV DATA                        RINEX VERSION / TYPE
fic2rin                                 01/17/2024 00:17:57 PGM / RUN BY / DATE
                                                            END OF HEADER
8  24  1 16  1 59 44.0 -.162298791111D-03 -.193267624127D-11  .000000000000D+00
     .900000000000D+01 -.290937500000D+02  .474484049879D-08 -.229705288595D+01
    -.175461173058D-05  .920369918458D-02  .838004052639D-05  .515357636261D+04
     .179984000000D+06 -.279396772385D-07 -.296006725224D+01 -.234693288803D-06
     .955507923437D+00  .217187500000D+03  .299606155136D+00 -.819391273793D-08
    -.299655338991D-09  .100000000000D+01  .229700000000D+04  .000000000000D+00
     .240000000000D+01  .000000000000D+00  .512227416039D-08  .900000000000D+01
     .172800000000D+06  .400000000000D+01
13 24  1 16 11 59 44.0  .616395846009D-03  .375166564481D-11  .000000000000D+00
     .410000000000D+02 -.864375000000D+02  .443375611231D-08  .264978234225D+01
    -.450387597084D-05  .775860308204D-02  .890530645847D-05  .515365839005D+04
     .215984000000D+06  .465661287308D-07  .352737003495D+00 -.108033418655D-06
     .971124224296D+00  .212187500000D+03  .947893727419D+00 -.791318675885D-08
    -.256796410887D-09  .100000000000D+01  .229700000000D+04  .000000000000D+00
     .240000000000D+01  .000000000000D+00 -.111758708954D-07  .410000000000D+02
     .208800000000D+06  .400000000000D+01
2  24  1 16 12  0  0.0 -.500058755279D-03  .568434188608D-11  .000000000000D+00
     .800000000000D+01  .422500000000D+02  .410088510404D-08 -.293849928861D+01
     .209175050259D-05  .163043810753D-01  .979751348495D-05  .515390132523D+04
     .216000000000D+06  .173225998878D-06 -.196493601268D+01  .195577740669D-06
     .967499138165D+00  .188750000000D+03 -.126226519080D+01 -.767174813053D-08
     .114647632677D-09  .100000000000D+01  .229700000000D+04  .000000000000D+00
     .240000000000D+01  .000000000000D+00 -.176951289177D-07  .800000000000D+01
     .208800000000D+06  .400000000000D+01
1  24  1 16 12  0  0.0  .166264828295D-03  .102318153949D-11  .000000000000D+00
     .650000000000D+02  .387187500000D+02  .371729769751D-08  .719414981379D+00
     .199675559998D-05  .131129933288D-01  .100862234831D-04  .515402612305D+04
     .216000000000D+06 -.160187482834D-06 -.186113789342D+01  .502914190292D-07
     .990433853488D+00  .202812500000D+03  .998248823310D+00 -.790532928870D-08
     .239295681911D-10  .100000000000D+01  .229700000000D+04  .000000000000D+00
     .240000000000D+01  .630000000000D+02  .512227416039D-08  .650000000000D+02
     .208800000000D+06  .400000000000D+01
8  24  1 16 12  0  0.0 -.162366311997D-03 -.193267624127D-11  .000000000000D+00
     .180000000000D+02 -.259062500000D+02  .464126475588D-08  .295602007620D+01
    -.135041773319D-05  .920537719503D-02  .747293233871D-05  .515357685471D+04
     .216000000000D+06 -.139698386192D-06 -.296036581772D+01 -.484287738800D-07
     .955493696559D+00  .234000000000D+03  .300085999581D+00 -.812926718804D-08
    -.392159192147D-09  .100000000000D+01  .229700000000D+04  .000000000000D+00
     .240000000000D+01  .000000000000D+00  .512227416039D-08  .180000000000D+02
     .208800000000D+06  .400000000000D+01
4  24  1 16 12  0  0.0  .267484690994D-03  .977706804406D-11  .000000000000D+00
     .190000000000D+02 -.790937500000D+02  .462304971143D-08  .270935357481D+01
    -.403448939323D-05  .281497533433D-02  .832043588161D-05  .515359367561D+04
     .216000000000D+06 -.987201929092D-07  .247383522894D+00 -.372529029846D-08
     .964443665521D+00  .222750000000D+03 -.300902610986D+01 -.810390898891D-08
    -.181793286706D-09  .100000000000D+01  .229700000000D+04  .000000000000D+00
     .240000000000D+01  .000000000000D+00 -.465661287308D-08  .190000000000D+02
     .208800000000D+06  .400000000000D+01
5  24  1 16 12  0  0.0 -.158169772476D-03 -.136424205266D-11  .000000000000D+00
     .120000000000D+03  .219375000000D+02  .461233497941D-08 -.300122530254D+01
     .955536961555D-06  .577358133160D-02  .529177486897D-05  .515378754616D+04
     .216000000000D+06  .987201929092D-07 -.881631681030D+00 -.987201929092D-07
     .969406799433D+00  .281093750000D+03  .123379690446D+01 -.821069915143D-08
     .356086260993D-09  .100000000000D+01  .229700000000D+04  .000000000000D+00
     .240000000000D+01  .000000000000D+00 -.111758708954D-07  .120000000000D+03
     .208800000000D+06  .400000000000D+01
3  24  1 16 12  0  0.0  .129879917949D-03  .258069121628D-10  .000000000000D+00
     .680000000000D+02  .111562500000D+02  .440232623170D-08 -.240270690844D+00
     .575557351112D-06  .504534679931D-02  .479444861412D-05  .515379170799D+04
     .216000000000D+06  .391155481339D-07 -.832016818760D+00  .113621354103D-06
     .982440596377D+00  .303750000000D+03  .107763240662D+01 -.825391523727D-08
     .288226291496D-09  .100000000000D+01  .229700000000D+04  .000000000000D+00
     .340000000000D+01  .000000000000D+00  .186264514923D-08  .680000000000D+02
     .208800000000D+06  .400000000000D+01
7  24  1 16 12  0  0.0 -.386685132980D-04 -.932232069317D-11  .000000000000D+00
     .500000000000D+02  .224687500000D+02  .480520015587D-08  .128628638905D+00
     .131130218506D-05  .178046411602D-01  .117067247629D-04  .515368478584D+04
     .216000000000D+06 -.124797224998D-06  .126084587646D+01  .230967998505D-06
     .950021769980D+00  .149812500000D+03 -.215751650749D+01 -.843285126210D-08
     .514307137242D-10  .100000000000D+01  .229700000000D+04  .000000000000D+00
     .240000000000D+01  .000000000000D+00 -.111758708954D-07  .500000000000D+02
     .208800000000D+06  .400000000000D+01
12 24  1 16 12  0  0.0 -.468432437629D-03 -.386535248253D-11  .000000000000D+00
     .750000000000D+02  .488125000000D+02  .489448958942D-08 -.567846508401D+00
     .255182385445D-05  .892253650818D-02  .604987144470D-05  .515371905518D+04
     .216000000000D+06 -.109896063805D-06  .237652185394D+01  .484287738800D-07
     .963268809178D+00  .265531250000D+03  .140585609500D+01 -.847142429740D-08
     .101789954246D-09  .100000000000D+01  .229700000000D+04  .000000000000D+00
     .240000000000D+01  .000000000000D+00 -.125728547573D-07  .750000000000D+02
     .208800000000D+06  .400000000000D+01
10 24  1 16 12  0  0.0 -.695590861142D-04 -.147792889038D-11  .000000000000D+00
     .109000000000D+03  .120937500000D+02  .424660545959D-08 -.130256671866D+01
     .733882188797D-06  .928459805436D-02  .458210706711D-05  .515368678665D+04
     .216000000000D+06  .158324837685D-06 -.834594332661D+00  .298023223877D-07
     .982130503095D+00  .298875000000D+03 -.239092622811D+01 -.809247994141D-08
     .334656796942D-09  .100000000000D+01  .229700000000D+04  .000000000000D+00
     .340000000000D+01  .000000000000D+00  .232830643654D-08  .109000000000D+03
     .208800000000D+06  .400000000000D+01
9  24  1 16 12  0  0.0  .606365501881D-04  .122781784739D-10  .000000000000D+00
     .830000000000D+02 -.802812500000D+02  .483805866742D-08 -.286337131059D+01
    -.409595668316D-05  .287278869655D-02  .778771936893D-05  .515374131012D+04
     .216000000000D+06 -.130385160446D-07  .188901236815D+00  .100582838058D-06
     .957932438051D+00  .229062500000D+03  .201417582811D+01 -.824034324337D-08
    -.193222334200D-09  .100000000000D+01  .229700000000D+04  .000000000000D+00
     .240000000000D+01  .000000000000D+00  .139698386192D-08  .830000000000D+02
     .208800000000D+06  .400000000000D+01
6  24  1 16 12  0  0.0  .442750286311D-03 -.133013600134D-10  .000000000000D+00
     .670000000000D+02  .263750000000D+02  .361800784741D-08  .102691205519D+01
     .140257179737D-05  .311343465000D-02  .110492110252D-04  .515355064774D+04
     .216000000000D+06  .633299350739D-07 -.186952011997D+01 -.596046447754D-07
     .989562194232D+00  .178031250000D+03 -.808684455971D+00 -.771710716277D-08
     .152506352502D-09  .100000000000D+01  .229700000000D+04  .000000000000D+00
     .240000000000D+01  .000000000000D+00  .372529029846D-08  .670000000000D+02
     .208800000000D+06  .400000000000D+01
31 24  1 16 12  0  0.0 -.227336771786D-03 -.227373675443D-12  .000000000000D+00
     .540000000000D+02  .156875000000D+02  .461340645261D-08 -.723676053590D+00
     .931322574615D-06  .106089578476D-01  .106543302536D-04  .515367504501D+04
     .216000000000D+06  .141561031342D-06  .128179976705D+01  .152736902237D-06
     .954027960900D+00  .171218750000D+03  .651364861424D+00 -.814141055100D-08
     .113576159474D-09  .100000000000D+01  .229700000000D+04  .000000000000D+00
     .240000000000D+01  .000000000000D+00 -.135041773319D-07  .540000000000D+02
     .208800000000D+06  .400000000000D+01
24 24  1 16 12  0  0.0 -.414840877056D-03 -.716227077646D-11  .000000000000D+00
     .380000000000D+02 -.180625000000D+02  .509128350097D-08  .118314265937D+01
    -.759959220886D-06  .150551050901D-01  .124741345644D-04  .515374086189D+04
     .216000000000D+06 -.247731804848D-06  .116606574599D+01  .949949026108D-07
     .933730036918D+00  .127343750000D+03  .963570041566D+00 -.847178145513D-08
    -.575023952056D-10  .100000000000D+01  .229700000000D+04  .000000000000D+00
     .240000000000D+01  .000000000000D+00  .232830643654D-08  .380000000000D+02
     .208800000000D+06  .400000000000D+01
29 24  1 16 12  0  0.0 -.608607660979D-03  .568434188608D-12  .000000000000D+00
     .620000000000D+02 -.281250000000D+02  .429375028051D-08  .295287380170D+01
    -.143237411976D-05  .253624666948D-02  .753626227379D-05  .515365670013D+04
     .216000000000D+06  .428408384323D-07 -.285309349770D+01 -.242143869400D-07
     .973575115323D+00  .242781250000D+03  .252668561835D+01 -.800140471919D-08
    -.433589489314D-09  .100000000000D+01  .229700000000D+04  .000000000000D+00
     .240000000000D+01  .000000000000D+00 -.102445483208D-07  .620000000000D+02
     .208800000000D+06  .400000000000D+01
